NORAD_CAT_ID,OBJECT_NAME,OBJECT_TYPE,EPOCH,MEAN_MOTION,ECCENTRICITY,INCLINATION,RA_OF_ASC_NODE,ARG_OF_PERICENTER,MEAN_ANOMALY,BSTAR,MEAN_MOTION_DOT,MEAN_MOTION_DDOT,TLE_LINE0,TLE_LINE1,TLE_LINE2,SEMIMAJOR_AXIS,PERIOD,APOGEE,PERIGEE,DECAYED
53022.0,STARLINK-4216,PAYLOAD,2024-03-03 13:16:49,15.08841413,0.00014,53.2156,148.7685,84.2566,275.8585,4.3026e-05,3.97e-06,0.0,0 STARLINK-4216,1 53022U 22076AN  24063.55334809  .00000397  00000-0  43026-4 0  9999,2 53022  53.2156 148.7685 0001400  84.2566 275.8585 15.08841413 91859,6917.876,95.437,540.71,538.773,0.0
53022.0,STARLINK-4216,PAYLOAD,2024-03-04 11:32:12,15.08854314,0.0001599,53.2161,144.6075,73.1512,286.9655,0.00045422,6.951e-05,0.0,0 STARLINK-4216,1 53022U 22076AN  24064.48070504  .00006951  00000-0  45422-3 0  9994,2 53022  53.2161 144.6075 0001599  73.1512 286.9655 15.08854314 92463,6917.837,95.437,540.808,538.595,0.0
53022.0,STARLINK-4216,PAYLOAD,2024-03-04 22:39:52,15.08886756,7.9e-05,53.215,142.5187,60.5606,299.5465,0.00094305,0.00014772,0.0,0 STARLINK-4216,1 53022U 22076AN  24064.94436065  .00014772  00000-0  94305-3 0  9997,2 53022  53.2150 142.5187 0000790  60.5606 299.5465 15.08886756 92068,6917.737,95.435,540.149,539.056,0.0
53022.0,STARLINK-4216,PAYLOAD,2024-03-05 11:22:59,15.08815501,0.0001842,53.2156,140.1452,63.3523,296.7658,-0.00092997,-0.00015048,0.0,0 STARLINK-4216,1 53022U 22076AN  24065.47430348 -.00015048  00000-0 -92997-3 0  9998,2 53022  53.2156 140.1452 0001842  63.3523 296.7658 15.08815501 92143,6917.955,95.439,541.095,538.546,0.0
53022.0,STARLINK-4216,PAYLOAD,2024-03-05 20:55:18,15.08817205,0.0001594,53.2162,138.3554,83.3822,276.7351,0.00035694,5.394e-05,0.0,0 STARLINK-4216,1 53022U 22076AN  24065.87174765  .00005394  00000-0  35694-3 0  9992,2 53022  53.2162 138.3554 0001594  83.3822 276.7351 15.08817205 92679,6917.95,95.439,540.918,538.712,0.0
53022.0,STARLINK-4216,PAYLOAD,2024-03-06 11:13:48,15.08825862,0.000174,53.2169,135.68,78.9522,281.1666,0.00087525,0.00013664,0.0,0 STARLINK-4216,1 53022U 22076AN  24066.46791958  .00013664  00000-0  87525-3 0  9996,2 53022  53.2169 135.6800 0001740  78.9522 281.1666 15.08825862 92295,6917.924,95.438,540.992,538.585,0.0
53022.0,STARLINK-4216,PAYLOAD,2024-03-07 04:43:02,15.08842071,0.0001745,53.2174,132.4069,86.6332,273.486,0.0007585,0.00011805,0.0,0 STARLINK-4216,1 53022U 22076AN  24067.19656146  .00011805  00000-0  75850-3 0  9999,2 53022  53.2174 132.4069 0001745  86.6332 273.4860 15.08842071 92878,6917.874,95.437,540.946,538.532,0.0
53022.0,STARLINK-4216,PAYLOAD,2024-03-07 11:04:35,15.08843124,0.000183,53.2168,131.2208,66.3213,293.7971,0.00056438,8.706e-05,0.0,0 STARLINK-4216,1 53022U 22076AN  24067.46152278  .00008706  00000-0  56438-3 0  9993,2 53022  53.2168 131.2208 0001830  66.3213 293.7971 15.08843124 92442,6917.871,95.437,541.002,538.47,0.0
53022.0,STARLINK-4216,PAYLOAD,2024-03-08 10:55:22,15.0884161,0.0001677,53.2168,126.7616,72.2064,287.9111,0.00018478,2.654e-05,0.0,0 STARLINK-4216,1 53022U 22076AN  24068.45512250  .00002654  00000-0  18478-3 0  9991,2 53022  53.2168 126.7616 0001677  72.2064 287.9111 15.08841610 93061,6917.875,95.437,540.901,538.58,0.0
53022.0,STARLINK-4216,PAYLOAD,2024-03-08 20:27:41,15.08849922,0.0001726,53.2172,124.9786,77.8849,282.2336,0.00027871,4.152e-05,0.0,0 STARLINK-4216,1 53022U 22076AN  24068.85255802  .00004152  00000-0  27871-3 0  9994,2 53022  53.2172 124.9786 0001726  77.8849 282.2336 15.08849922 92656,6917.85,95.437,540.909,538.521,0.0
53022.0,STARLINK-4216,PAYLOAD,2024-03-09 04:24:37,15.08833472,0.0001699,53.2166,123.4921,80.8246,279.2939,-3.8362e-05,-8.98e-06,0.0,0 STARLINK-4216,1 53022U 22076AN  24069.18376569 -.00000898  00000-0 -38362-4 0  9998,2 53022  53.2166 123.4921 0001699  80.8246 279.2939 15.08833472 93174,6917.9,95.438,540.941,538.59,0.0
53022.0,STARLINK-4216,PAYLOAD,2024-03-09 10:46:09,15.08839365,0.0001718,53.2162,122.3039,83.5771,276.5416,6.489e-05,7.45e-06,0.0,0 STARLINK-4216,1 53022U 22076AN  24069.44872467  .00000745  00000-0  64890-4 0  9999,2 53022  53.2162 122.3039 0001718  83.5771 276.5416 15.08839365 92742,6917.882,95.438,540.936,538.559,0.0
53022.0,STARLINK-4216,PAYLOAD,2024-03-09 20:18:28,15.08846981,0.000175,53.2159,120.5187,81.558,278.5611,0.00015129,2.121e-05,0.0,0 STARLINK-4216,1 53022U 22076AN  24069.84616098  .00002121  00000-0  15129-3 0  9999,2 53022  53.2159 120.5187 0001750  81.5580 278.5611 15.08846981 93274,6917.859,95.437,540.935,538.513,0.0
53022.0,STARLINK-4216,PAYLOAD,2024-03-10 10:36:56,15.08840745,0.0001731,53.2158,117.842,82.0851,278.0337,0.00010761,1.425e-05,0.0,0 STARLINK-4216,1 53022U 22076AN  24070.44232364  .00001425  00000-0  10761-3 0  9990,2 53022  53.2158 117.8420 0001731  82.0851 278.0337 15.08840745 93360,6917.878,95.438,540.941,538.546,0.0
53022.0,STARLINK-4216,PAYLOAD,2024-03-11 10:27:43,15.08842869,0.0001688,53.2151,113.382,86.5295,273.5891,0.00017073,2.43e-05,0.0,0 STARLINK-4216,1 53022U 22076AN  24071.43592267  .00002430  00000-0  17073-3 0  9991,2 53022  53.2151 113.3820 0001688  86.5295 273.5891 15.08842869 93049,6917.872,95.437,540.904,538.569,0.0
53022.0,STARLINK-4216,PAYLOAD,2024-03-11 20:00:02,15.08848329,0.0001593,53.2155,111.5968,83.439,276.6783,0.00022063,3.226e-05,0.0,0 STARLINK-4216,1 53022U 22076AN  24071.83335953  .00003226  00000-0  22063-3 0  9991,2 53022  53.2155 111.5968 0001593  83.4390 276.6783 15.08848329 93572,6917.855,95.437,540.822,538.618,0.0
53022.0,STARLINK-4216,PAYLOAD,2024-03-12 08:43:07,15.08841105,0.0002,53.216,109.212,98.3505,261.7714,9.7843e-05,1.269e-05,0.0,0 STARLINK-4216,1 53022U 22076AN  24072.36328373  .00001269  00000-0  97843-4 0  9992,2 53022  53.2160 109.2120 0002000  98.3505 261.7714 15.08841105 93652,6917.877,95.437,541.126,538.358,0.0
53022.0,STARLINK-4216,PAYLOAD,2024-03-12 19:50:49,15.08844607,0.0001663,53.2153,107.1341,95.28,264.8382,0.00013848,1.917e-05,0.0,0 STARLINK-4216,1 53022U 22076AN  24072.82696154  .00001917  00000-0  13848-3 0  9990,2 53022  53.2153 107.1341 0001663  95.2800 264.8382 15.08844607 93255,6917.866,95.437,540.882,538.581,0.0
53022.0,STARLINK-4216,PAYLOAD,2024-03-13 08:33:54,15.08841503,0.0001738,53.2156,104.7554,96.0832,264.0358,6.2012e-05,6.99e-06,0.0,0 STARLINK-4216,1 53022U 22076AN  24073.35688311  .00000699  00000-0  62012-4 0  9999,2 53022  53.2156 104.7554 0001738  96.0832 264.0358 15.08841503 93330,6917.876,95.437,540.943,538.538,0.0
53022.0,STARLINK-4216,PAYLOAD,2024-03-14 05:13:55,15.0884412,0.0001766,53.2159,100.8891,99.1479,260.9713,0.00020124,2.916e-05,0.0,0 STARLINK-4216,1 53022U 22076AN  24074.21800219  .00002916  00000-0  20124-3 0  9999,2 53022  53.2159 100.8891 0001766  99.1479 260.9713 15.08844120 93930,6917.868,95.437,540.954,538.511,0.0
53022.0,STARLINK-4216,PAYLOAD,2024-03-14 06:49:18,15.08843188,0.0001754,53.2158,100.5918,98.9406,261.1784,0.00018271,2.621e-05,0.0,0 STARLINK-4216,1 53022U 22076AN  24074.28424261  .00002621  00000-0  18271-3 0  9998,2 53022  53.2158 100.5918 0001754  98.9406 261.1784 15.08843188 93473,6917.871,95.437,540.949,538.522,0.0
53022.0,STARLINK-4216,PAYLOAD,2024-03-14 11:35:27,15.0884566,0.0001718,53.216,99.6999,98.3326,261.7861,0.00014636,2.042e-05,0.0,0 STARLINK-4216,1 53022U 22076AN  24074.48296078  .00002042  00000-0  14636-3 0  9991,2 53022  53.2160  99.6999 0001718  98.3326 261.7861 15.08845660 93501,6917.863,95.437,540.917,538.54,0.0
53022.0,STARLINK-4216,PAYLOAD,2024-03-15 05:04:42,15.08839289,0.0001651,53.2153,96.4284,97.9849,262.1331,7.2865e-05,8.72e-06,0.0,0 STARLINK-4216,1 53022U 22076AN  24075.21160321  .00000872  00000-0  72865-4 0  9992,2 53022  53.2153  96.4284 0001651  97.9849 262.1331 15.08839289 94087,6917.883,95.438,540.89,538.605,0.0
53022.0,STARLINK-4216,PAYLOAD,2024-03-15 08:15:28,15.08838558,0.0001601,53.2154,95.8334,96.9175,263.1999,2.6623e-05,1.36e-06,0.0,0 STARLINK-4216,1 53022U 22076AN  24075.34408332  .00000136  00000-0  26623-4 0  9997,2 53022  53.2154  95.8334 0001601  96.9175 263.1999 15.08838558 93632,6917.885,95.438,540.857,538.642,0.0
53022.0,STARLINK-4216,PAYLOAD,2024-03-16 06:30:53,15.0883716,0.0001567,53.2164,91.67,99.0978,261.0191,3.6546e-05,2.94e-06,0.0,0 STARLINK-4216,1 53022U 22076AN  24076.27144677  .00000294  00000-0  36546-4 0  9999,2 53022  53.2164  91.6700 0001567  99.0978 261.0191 15.08837160 94247,6917.889,95.438,540.838,538.67,0.0
53022.0,STARLINK-4216,PAYLOAD,2024-03-17 09:32:26,15.08837382,0.0001563,53.2171,86.6174,98.335,261.782,8.6175e-05,1.084e-05,0.0,0 STARLINK-4216,1 53022U 22076AN  24077.39752814  .00001084  00000-0  86175-4 0  9992,2 53022  53.2171  86.6174 0001563  98.3350 261.7820 15.08837382 94417,6917.888,95.438,540.835,538.672,0.0
53022.0,STARLINK-4216,PAYLOAD,2024-03-18 07:47:50,15.08838115,0.0001558,53.2174,82.4511,94.6859,265.4311,7.9834e-05,9.83e-06,0.0,0 STARLINK-4216,1 53022U 22076AN  24078.32488981  .00000983  00000-0  79834-4 0  9998,2 53022  53.2174  82.4511 0001558  94.6859 265.4311 15.08838115 94080,6917.886,95.438,540.829,538.673,0.0
53022.0,STARLINK-4216,PAYLOAD,2024-03-19 04:27:51,15.08842648,0.0001619,53.2176,78.5877,92.153,267.9647,9.7424e-05,1.263e-05,0.0,0 STARLINK-4216,1 53022U 22076AN  24079.18600872  .00001263  00000-0  97424-4 0  9995,2 53022  53.2176  78.5877 0001619  92.1530 267.9647 15.08842648 94681,6917.872,95.437,540.857,538.617,0.0
53022.0,STARLINK-4216,PAYLOAD,2024-03-19 09:14:00,15.08845939,0.0001555,53.2172,77.6947,93.1963,266.9207,0.00011779,1.587e-05,0.0,0 STARLINK-4216,1 53022U 22076AN  24079.38472574  .00001587  00000-0  11779-3 0  9990,2 53022  53.2172  77.6947 0001555  93.1963 266.9207 15.08845939 94244,6917.862,95.437,540.803,538.652,0.0
53022.0,STARLINK-4216,PAYLOAD,2024-03-20 09:04:48,15.0883801,0.0001544,53.2171,73.2338,96.5385,263.5783,4.0244e-05,3.53e-06,0.0,0 STARLINK-4216,1 53022U 22076AN  24080.37833334  .00000353  00000-0  40244-4 0  9996,2 53022  53.2171  73.2338 0001544  96.5385 263.5783 15.08838010 94864,6917.886,95.438,540.82,538.683,0.0
